[{"OBJECT_NAME":"ONEWEB-0161","OBJECT_ID":"2021-025M","EPOCH":"2025-08-01T12:39:58.447584","MEAN_MOTION":13.13472517,"ECCENTRICITY":0.0001603,"INCLINATION":87.897,"RA_OF_ASC_NODE":23.7293,"ARG_OF_PERICENTER":88.988,"MEAN_ANOMALY":271.1433,"EPHEMERIS_TYPE":0,"CLASSIFICATION_TYPE":"U","NORAD_CAT_ID":48053,"ELEMENT_SET_NO":999,"REV_AT_EPOCH":21154,"BSTAR":0.00073392,"MEAN_MOTION_DOT":2.81e-6,"MEAN_MOTION_DDOT":0},{"OBJECT_NAME":"ONEWEB-0158","OBJECT_ID":"2021-025N","EPOCH":"2025-08-01T11:41:26.965824","MEAN_MOTION":13.1346958,"ECCENTRICITY":0.0001925,"INCLINATION":87.8971,"RA_OF_ASC_NODE":23.7162,"ARG_OF_PERICENTER":94.2442,"MEAN_ANOMALY":265.8908,"EPHEMERIS_TYPE":0,"CLASSIFICATION_TYPE":"U","NORAD_CAT_ID":48054,"ELEMENT_SET_NO":999,"REV_AT_EPOCH":21166,"BSTAR":-0.0004454,"MEAN_MOTION_DOT":-1.5e-6,"MEAN_MOTION_DDOT":0},{"OBJECT_NAME":"ONEWEB-0157","OBJECT_ID":"2021-025P","EPOCH":"2025-08-01T12:18:01.283904","MEAN_MOTION":13.13469893,"ECCENTRICITY":0.0001368,"INCLINATION":87.8965,"RA_OF_ASC_NODE":23.7212,"ARG_OF_PERICENTER":86.6146,"MEAN_ANOMALY":273.5139,"EPHEMERIS_TYPE":0,"CLASSIFICATION_TYPE":"U","NORAD_CAT_ID":48055,"ELEMENT_SET_NO":999,"REV_AT_EPOCH":21161,"BSTAR":-0.00039361,"MEAN_MOTION_DOT":-1.31e-6,"MEAN_MOTION_DDOT":0},{"OBJECT_NAME":"ONEWEB-0162","OBJECT_ID":"2021-025Q","EPOCH":"2025-08-01T11:43:42.256992","MEAN_MOTION":13.13469178,"ECCENTRICITY":0.0001727,"INCLINATION":87.8968,"RA_OF_ASC_NODE":23.7244,"ARG_OF_PERICENTER":92.3427,"MEAN_ANOMALY":267.79,"EPHEMERIS_TYPE":0,"CLASSIFICATION_TYPE":"U","NORAD_CAT_ID":48056,"ELEMENT_SET_NO":999,"REV_AT_EPOCH":21157,"BSTAR":-0.00024516,"MEAN_MOTION_DOT":-7.7e-7,"MEAN_MOTION_DDOT":0},{"OBJECT_NAME":"ONEWEB-0155","OBJECT_ID":"2021-025R","EPOCH":"2025-08-01T19:12:24.549696","MEAN_MOTION":13.13471385,"ECCENTRICITY":0.0001721,"INCLINATION":87.8967,"RA_OF_ASC_NODE":23.6704,"ARG_OF_PERICENTER":85.7739,"MEAN_ANOMALY":274.3587,"EPHEMERIS_TYPE":0,"CLASSIFICATION_TYPE":"U","NORAD_CAT_ID":48057,"ELEMENT_SET_NO":999,"REV_AT_EPOCH":21176,"BSTAR":-0.00065886,"MEAN_MOTION_DOT":-2.28e-6,"MEAN_MOTION_DDOT":0},{"OBJECT_NAME":"ONEWEB-0149","OBJECT_ID":"2021-025S","EPOCH":"2025-08-01T12:25:20.379936","MEAN_MOTION":13.13469869,"ECCENTRICITY":0.0001719,"INCLINATION":87.8966,"RA_OF_ASC_NODE":23.7215,"ARG_OF_PERICENTER":98.7941,"MEAN_ANOMALY":261.3382,"EPHEMERIS_TYPE":0,"CLASSIFICATION_TYPE":"U","NORAD_CAT_ID":48058,"ELEMENT_SET_NO":999,"REV_AT_EPOCH":21152,"BSTAR":-0.0001949,"MEAN_MOTION_DOT":-5.8e-7,"MEAN_MOTION_DDOT":0},{"OBJECT_NAME":"ONEWEB-0148","OBJECT_ID":"2021-025T","EPOCH":"2025-08-01T11:31:42.658176","MEAN_MOTION":13.13471564,"ECCENTRICITY":0.0001383,"INCLINATION":87.8968,"RA_OF_ASC_NODE":23.7531,"ARG_OF_PERICENTER":111.8369,"MEAN_ANOMALY":248.2907,"EPHEMERIS_TYPE":0,"CLASSIFICATION_TYPE":"U","NORAD_CAT_ID":48059,"ELEMENT_SET_NO":999,"REV_AT_EPOCH":21164,"BSTAR":0.00022289,"MEAN_MOTION_DOT":9.4e-7,"MEAN_MOTION_DDOT":0},{"OBJECT_NAME":"ONEWEB-0160","OBJECT_ID":"2021-025U","EPOCH":"2025-08-01T11:56:05.532864","MEAN_MOTION":13.1346939,"ECCENTRICITY":0.0002608,"INCLINATION":87.8968,"RA_OF_ASC_NODE":23.7468,"ARG_OF_PERICENTER":95.1081,"MEAN_ANOMALY":265.0345,"EPHEMERIS_TYPE":0,"CLASSIFICATION_TYPE":"U","NORAD_CAT_ID":48060,"ELEMENT_SET_NO":999,"REV_AT_EPOCH":21159,"BSTAR":-0.00076274,"MEAN_MOTION_DOT":-2.66e-6,"MEAN_MOTION_DDOT":0},{"OBJECT_NAME":"ONEWEB-0163","OBJECT_ID":"2021-025V","EPOCH":"2025-08-01T11:34:09.471648","MEAN_MOTION":13.13469624,"ECCENTRICITY":0.000148,"INCLINATION":87.8968,"RA_OF_ASC_NODE":23.7304,"ARG_OF_PERICENTER":86.6281,"MEAN_ANOMALY":273.5017,"EPHEMERIS_TYPE":0,"CLASSIFICATION_TYPE":"U","NORAD_CAT_ID":48061,"ELEMENT_SET_NO":999,"REV_AT_EPOCH":21171,"BSTAR":0.00013807,"MEAN_MOTION_DOT":6.3e-7,"MEAN_MOTION_DDOT":0},{"OBJECT_NAME":"ONEWEB-0159","OBJECT_ID":"2021-025W","EPOCH":"2025-08-01T11:21:57.705120","MEAN_MOTION":13.1346973,"ECCENTRICITY":0.0001536,"INCLINATION":87.8969,"RA_OF_ASC_NODE":23.7136,"ARG_OF_PERICENTER":91.944,"MEAN_ANOMALY":268.1865,"EPHEMERIS_TYPE":0,"CLASSIFICATION_TYPE":"U","NORAD_CAT_ID":48062,"ELEMENT_SET_NO":999,"REV_AT_EPOCH":21163,"BSTAR":0.00069002,"MEAN_MOTION_DOT":2.65e-6,"MEAN_MOTION_DDOT":0},{"OBJECT_NAME":"ONEWEB-0164","OBJECT_ID":"2021-025X","EPOCH":"2025-08-01T09:05:27.376512","MEAN_MOTION":13.1347052,"ECCENTRICITY":0.000184,"INCLINATION":87.8965,"RA_OF_ASC_NODE":23.7425,"ARG_OF_PERICENTER":91.1028,"MEAN_ANOMALY":269.0312,"EPHEMERIS_TYPE":0,"CLASSIFICATION_TYPE":"U","NORAD_CAT_ID":48063,"ELEMENT_SET_NO":999,"REV_AT_EPOCH":21160,"BSTAR":0.00081092,"MEAN_MOTION_DOT":3.09e-6,"MEAN_MOTION_DDOT":0},{"OBJECT_NAME":"ONEWEB-0167","OBJECT_ID":"2021-025Y","EPOCH":"2025-08-01T11:35:23.006688","MEAN_MOTION":13.13469535,"ECCENTRICITY":0.0001721,"INCLINATION":87.8976,"RA_OF_ASC_NODE":23.7537,"ARG_OF_PERICENTER":65.6506,"MEAN_ANOMALY":294.4803,"EPHEMERIS_TYPE":0,"CLASSIFICATION_TYPE":"U","NORAD_CAT_ID":48064,"ELEMENT_SET_NO":999,"REV_AT_EPOCH":21160,"BSTAR":0.0002389,"MEAN_MOTION_DOT":1.0e-6,"MEAN_MOTION_DDOT":0},{"OBJECT_NAME":"ONEWEB-0166","OBJECT_ID":"2021-025Z","EPOCH":"2025-08-01T12:08:16.822464","MEAN_MOTION":13.13470376,"ECCENTRICITY":0.0001657,"INCLINATION":87.8963,"RA_OF_ASC_NODE":23.7019,"ARG_OF_PERICENTER":96.8831,"MEAN_ANOMALY":263.2487,"EPHEMERIS_TYPE":0,"CLASSIFICATION_TYPE":"U","NORAD_CAT_ID":48065,"ELEMENT_SET_NO":999,"REV_AT_EPOCH":21168,"BSTAR":-0.00053378,"MEAN_MOTION_DOT":-1.82e-6,"MEAN_MOTION_DDOT":0},{"OBJECT_NAME":"ONEWEB-0151","OBJECT_ID":"2021-025AA","EPOCH":"2025-08-01T12:10:42.737376","MEAN_MOTION":13.13470183,"ECCENTRICITY":0.0001793,"INCLINATION":87.8967,"RA_OF_ASC_NODE":23.7252,"ARG_OF_PERICENTER":87.3749,"MEAN_ANOMALY":272.7585,"EPHEMERIS_TYPE":0,"CLASSIFICATION_TYPE":"U","NORAD_CAT_ID":48066,"ELEMENT_SET_NO":999,"REV_AT_EPOCH":21163,"BSTAR":-0.00071233,"MEAN_MOTION_DOT":-2.47e-6,"MEAN_MOTION_DDOT":0},{"OBJECT_NAME":"ONEWEB-0170","OBJECT_ID":"2021-025AB","EPOCH":"2025-08-01T12:22:54.369120","MEAN_MOTION":13.13470656,"ECCENTRICITY":0.0002204,"INCLINATION":87.8969,"RA_OF_ASC_NODE":23.7292,"ARG_OF_PERICENTER":84.6846,"MEAN_ANOMALY":275.4535,"EPHEMERIS_TYPE":0,"CLASSIFICATION_TYPE":"U","NORAD_CAT_ID":48067,"ELEMENT_SET_NO":999,"REV_AT_EPOCH":21158,"BSTAR":-0.00029118,"MEAN_MOTION_DOT":-9.4e-7,"MEAN_MOTION_DDOT":0},{"OBJECT_NAME":"ONEWEB-0168","OBJECT_ID":"2021-025AC","EPOCH":"2025-08-01T12:00:58.944672","MEAN_MOTION":13.13461006,"ECCENTRICITY":0.0001743,"INCLINATION":87.8972,"RA_OF_ASC_NODE":23.714,"ARG_OF_PERICENTER":90.435,"MEAN_ANOMALY":269.6979,"EPHEMERIS_TYPE":0,"CLASSIFICATION_TYPE":"U","NORAD_CAT_ID":48068,"ELEMENT_SET_NO":999,"REV_AT_EPOCH":21159,"BSTAR":-0.0026872,"MEAN_MOTION_DOT":-9.68e-6,"MEAN_MOTION_DDOT":0},{"OBJECT_NAME":"ONEWEB-0173","OBJECT_ID":"2021-025AD","EPOCH":"2025-08-01T19:07:33.477600","MEAN_MOTION":13.13468935,"ECCENTRICITY":0.000147,"INCLINATION":87.8971,"RA_OF_ASC_NODE":23.6627,"ARG_OF_PERICENTER":80.1887,"MEAN_ANOMALY":279.9408,"EPHEMERIS_TYPE":0,"CLASSIFICATION_TYPE":"U","NORAD_CAT_ID":48069,"ELEMENT_SET_NO":999,"REV_AT_EPOCH":21187,"BSTAR":-0.00052146,"MEAN_MOTION_DOT":-1.78e-6,"MEAN_MOTION_DDOT":0}]
