ONEWEB-0161             
1 48053U 21025M   25213.52775981  .00000281  00000+0  73392-3 0  9994
2 48053  87.8970  23.7293 0001603  88.9880 271.1433 13.13472517211546
ONEWEB-0158             
1 48054U 21025N   25213.48711766 -.00000150  00000+0 -44540-3 0  9991
2 48054  87.8971  23.7162 0001925  94.2442 265.8908 13.13469580211660
ONEWEB-0157             
1 48055U 21025P   25213.51251486 -.00000131  00000+0 -39361-3 0  9998
2 48055  87.8965  23.7212 0001368  86.6146 273.5139 13.13469893211611
ONEWEB-0162             
1 48056U 21025Q   25213.48868353 -.00000077  00000+0 -24516-3 0  9997
2 48056  87.8968  23.7244 0001727  92.3427 267.7900 13.13469178211577
ONEWEB-0155             
1 48057U 21025R   25213.80028414 -.00000228  00000+0 -65886-3 0  9993
2 48057  87.8967  23.6704 0001721  85.7739 274.3587 13.13471385211762
ONEWEB-0149             
1 48058U 21025S   25213.51759699 -.00000058  00000+0 -19490-3 0  9999
2 48058  87.8966  23.7215 0001719  98.7941 261.3382 13.13469869211523
ONEWEB-0148             
1 48059U 21025T   25213.48035484  .00000094  00000+0  22289-3 0  9993
2 48059  87.8968  23.7531 0001383 111.8369 248.2907 13.13471564211640
ONEWEB-0160             
1 48060U 21025U   25213.49728626 -.00000266  00000+0 -76274-3 0  9999
2 48060  87.8968  23.7468 0002608  95.1081 265.0345 13.13469390211598
ONEWEB-0163             
1 48061U 21025V   25213.48205407  .00000063  00000+0  13807-3 0  9992
2 48061  87.8968  23.7304 0001480  86.6281 273.5017 13.13469624211716
ONEWEB-0159             
1 48062U 21025W   25213.47358455  .00000265  00000+0  69002-3 0  9996
2 48062  87.8969  23.7136 0001536  91.9440 268.1865 13.13469730211639
ONEWEB-0164             
1 48063U 21025X   25213.37878908  .00000309  00000+0  81092-3 0  9998
2 48063  87.8965  23.7425 0001840  91.1028 269.0312 13.13470520211602
ONEWEB-0167             
1 48064U 21025Y   25213.48290517  .00000100  00000+0  23890-3 0  9996
2 48064  87.8976  23.7537 0001721  65.6506 294.4803 13.13469535211605
ONEWEB-0166             
1 48065U 21025Z   25213.50575026 -.00000182  00000+0 -53378-3 0  9997
2 48065  87.8963  23.7019 0001657  96.8831 263.2487 13.13470376211687
ONEWEB-0151             
1 48066U 21025AA  25213.50743909 -.00000247  00000+0 -71233-3 0  9997
2 48066  87.8967  23.7252 0001793  87.3749 272.7585 13.13470183211630
ONEWEB-0170             
1 48067U 21025AB  25213.51590705 -.00000094  00000+0 -29118-3 0  9998
2 48067  87.8969  23.7292 0002204  84.6846 275.4535 13.13470656211587
ONEWEB-0168             
1 48068U 21025AC  25213.50068223 -.00000968  00000+0 -26872-2 0  9996
2 48068  87.8972  23.7140 0001743  90.4350 269.6979 13.13461006211593
ONEWEB-0173             
1 48069U 21025AD  25213.79691525 -.00000178  00000+0 -52146-3 0  9992
2 48069  87.8971  23.6627 0001470  80.1887 279.9408 13.13468935211870
